NORAD_CAT_ID,OBJECT_NAME,OBJECT_TYPE,EPOCH,MEAN_MOTION,ECCENTRICITY,INCLINATION,RA_OF_ASC_NODE,ARG_OF_PERICENTER,MEAN_ANOMALY,BSTAR,MEAN_MOTION_DOT,MEAN_MOTION_DDOT,TLE_LINE0,TLE_LINE1,TLE_LINE2,SEMIMAJOR_AXIS,PERIOD,APOGEE,PERIGEE,DECAYED
53716.0,STARLINK-4699,PAYLOAD,2023-03-11 04:12:17,15.08828602,8.18e-05,53.2167,127.2646,114.9746,245.1331,0.00036213,5.478e-05,0.0,0 STARLINK-4699,1 53716U 22107S   23070.17520061  .00005478  00000-0  36213-3 0  9990,2 53716  53.2167 127.2646 0000818 114.9746 245.1331 15.08828602 28723,6917.915,95.438,540.346,539.214,0.0
53716.0,STARLINK-4699,PAYLOAD,2023-03-11 10:33:50,15.08819132,0.0001328,53.2171,126.0777,121.964,238.1482,0.00043382,6.619e-05,0.0,0 STARLINK-4699,1 53716U 22107S   23070.44016627  .00006619  00000-0  43382-3 0  9991,2 53716  53.2171 126.0777 0001328 121.9640 238.1482 15.08819132 29210,6917.944,95.439,540.728,538.89,0.0
53716.0,STARLINK-4699,PAYLOAD,2023-03-11 15:19:59,15.0883139,0.0001221,53.2163,125.1819,127.5901,232.5203,0.00031852,4.784e-05,0.0,0 STARLINK-4699,1 53716U 22107S   23070.63888390  .00004784  00000-0  31852-3 0  9996,2 53716  53.2163 125.1819 0001221 127.5901 232.5203 15.08831390 29244,6917.907,95.438,540.616,538.927,0.0
53716.0,STARLINK-4699,PAYLOAD,2023-03-12 04:03:05,15.08821128,0.0001061,53.2165,122.8039,103.7976,256.3135,0.00010787,1.429e-05,0.0,0 STARLINK-4699,1 53716U 22107S   23071.16881231  .00001429  00000-0  10787-3 0  9999,2 53716  53.2165 122.8039 0001061 103.7976 256.3135 15.08821128 28878,6917.938,95.439,540.537,539.069,0.0
53716.0,STARLINK-4699,PAYLOAD,2023-03-12 08:49:15,15.08824533,0.0001303,53.2168,121.9121,94.9721,265.142,0.00037345,5.658e-05,0.0,0 STARLINK-4699,1 53716U 22107S   23071.36753523  .00005658  00000-0  37345-3 0  9990,2 53716  53.2168 121.9121 0001303  94.9721 265.1420 15.08824533 29353,6917.928,95.439,540.694,538.891,0.0
53716.0,STARLINK-4699,PAYLOAD,2023-03-13 13:26:11,15.08846597,0.0001277,53.2181,116.559,86.0847,274.0291,0.00040428,6.153e-05,0.0,0 STARLINK-4699,1 53716U 22107S   23072.55985511  .00006153  00000-0  40428-3 0  9993,2 53716  53.2181 116.5590 0001277  86.0847 274.0291 15.08846597 29538,6917.86,95.437,540.609,538.842,0.0
53716.0,STARLINK-4699,PAYLOAD,2023-03-14 03:44:39,15.08843568,0.000123,53.2175,113.8837,90.2412,269.8721,0.00020202,2.929e-05,0.0,0 STARLINK-4699,1 53716U 22107S   23073.15601528  .00002929  00000-0  20202-3 0  9998,2 53716  53.2175 113.8837 0001230  90.2412 269.8721 15.08843568 29174,6917.869,95.437,540.585,538.884,0.0
53716.0,STARLINK-4699,PAYLOAD,2023-03-14 10:06:11,15.0884954,0.0001169,53.217,112.694,96.457,263.6555,0.0002789,4.155e-05,0.0,0 STARLINK-4699,1 53716U 22107S   23073.42097177  .00004155  00000-0  27890-3 0  9990,2 53716  53.2170 112.6940 0001169  96.4570 263.6555 15.08849540 29662,6917.851,95.437,540.525,538.908,0.0
53716.0,STARLINK-4699,PAYLOAD,2023-03-14 19:38:30,15.0885353,0.0001319,53.2174,110.9098,88.5426,271.5717,0.00032533,4.895e-05,0.0,0 STARLINK-4699,1 53716U 22107S   23073.81840946  .00004895  00000-0  32533-3 0  9994,2 53716  53.2174 110.9098 0001319  88.5426 271.5717 15.08853530 29729,6917.839,95.437,540.616,538.792,0.0
53716.0,STARLINK-4699,PAYLOAD,2023-03-15 09:56:58,15.08868856,0.0001411,53.2171,108.234,87.5019,272.6135,0.00065333,0.00010133,0.0,0 STARLINK-4699,1 53716U 22107S   23074.41456091  .00010133  00000-0  65333-3 0  9991,2 53716  53.2171 108.2340 0001411  87.5019 272.6135 15.08868856 29369,6917.792,95.436,540.633,538.681,0.0
53716.0,STARLINK-4699,PAYLOAD,2023-03-16 05:01:35,15.0884423,0.0001152,53.217,104.6654,59.3032,300.8074,4.2189e-05,3.84e-06,0.0,0 STARLINK-4699,1 53716U 22107S   23075.20944422  .00000384  00000-0  42189-4 0  9991,2 53716  53.2170 104.6654 0001152  59.3032 300.8074 15.08844230 29489,6917.867,95.437,540.529,538.936,0.0
53716.0,STARLINK-4699,PAYLOAD,2023-03-16 12:58:31,15.08845427,0.000147,53.2166,103.1778,84.9269,275.1891,0.00013497,1.861e-05,0.0,0 STARLINK-4699,1 53716U 22107S   23075.54064316  .00001861  00000-0  13497-3 0  9993,2 53716  53.2166 103.1778 0001470  84.9269 275.1891 15.08845427 29989,6917.864,95.437,540.746,538.712,0.0
53716.0,STARLINK-4699,PAYLOAD,2023-03-16 19:20:04,15.08829292,0.0002365,53.2192,101.9916,71.3671,288.7578,-6.0683e-05,-1.254e-05,0.0,0 STARLINK-4699,1 53716U 22107S   23075.80561301 -.00001254  00000-0 -60683-4 0  9996,2 53716  53.2192 101.9916 0002365  71.3671 288.7578 15.08829292 29578,6917.913,95.438,541.414,538.142,0.0
53716.0,STARLINK-4699,PAYLOAD,2023-03-17 12:49:19,15.08831347,0.0001608,53.217,98.7171,88.005,272.1126,0.00048547,7.445e-05,0.0,0 STARLINK-4699,1 53716U 22107S   23076.53425629  .00007445  00000-0  48547-3 0  9999,2 53716  53.2170  98.7171 0001608  88.0050 272.1126 15.08831347 30139,6917.907,95.438,540.884,538.659,0.0
53716.0,STARLINK-4699,PAYLOAD,2023-03-18 04:43:11,15.08845219,0.0001678,53.2171,95.7435,89.8918,270.2267,0.00057531,8.881e-05,0.0,0 STARLINK-4699,1 53716U 22107S   23077.19665592  .00008881  00000-0  57531-3 0  9995,2 53716  53.2171  95.7435 0001678  89.8918 270.2267 15.08845219 29786,6917.864,95.437,540.89,538.569,0.0
53716.0,STARLINK-4699,PAYLOAD,2023-03-18 12:40:06,15.08861244,0.0001693,53.2171,94.2575,86.3066,273.812,0.0009052,0.00014156,0.0,0 STARLINK-4699,1 53716U 22107S   23077.52785195  .00014156  00000-0  90520-3 0  9991,2 53716  53.2171  94.2575 0001693  86.3066 273.8120 15.08861244 29837,6917.815,95.436,540.852,538.509,0.0
53716.0,STARLINK-4699,PAYLOAD,2023-03-19 06:09:21,15.08847494,0.0001667,53.2173,90.9865,82.1168,278.0013,0.00037144,5.63e-05,0.0,0 STARLINK-4699,1 53716U 22107S   23078.25649427  .00005630  00000-0  37144-3 0  9999,2 53716  53.2173  90.9865 0001667  82.1168 278.0013 15.08847494 29943,6917.857,95.437,540.876,538.569,0.0
53716.0,STARLINK-4699,PAYLOAD,2023-03-19 07:44:44,15.08848506,0.0001585,53.2172,90.6891,81.3622,278.7549,0.00043139,6.586e-05,0.0,0 STARLINK-4699,1 53716U 22107S   23078.32273365  .00006586  00000-0  43139-3 0  9993,2 53716  53.2172  90.6891 0001585  81.3622 278.7549 15.08848506 30402,6917.854,95.437,540.816,538.623,0.0
53716.0,STARLINK-4699,PAYLOAD,2023-03-19 17:17:02,15.08843823,0.0001378,53.217,88.9048,89.5022,270.6128,0.00038717,5.88e-05,0.0,0 STARLINK-4699,1 53716U 22107S   23078.72017360  .00005880  00000-0  38717-3 0  9990,2 53716  53.2170  88.9048 0001378  89.5022 270.6128 15.08843823 30465,6917.869,95.437,540.687,538.78,0.0
53716.0,STARLINK-4699,PAYLOAD,2023-03-20 06:00:08,15.08842514,0.0001481,53.217,86.5265,93.6105,266.5056,0.00023211,3.408e-05,0.0,0 STARLINK-4699,1 53716U 22107S   23079.25009433  .00003408  00000-0  23211-3 0  9998,2 53716  53.2170  86.5265 0001481  93.6105 266.5056 15.08842514 30092,6917.873,95.437,540.762,538.713,0.0
53716.0,STARLINK-4699,PAYLOAD,2023-03-20 09:10:54,15.08848588,0.00015,53.217,85.9316,94.0579,266.0584,0.00026812,3.983e-05,0.0,0 STARLINK-4699,1 53716U 22107S   23079.38257208  .00003983  00000-0  26812-3 0  9995,2 53716  53.2170  85.9316 0001500  94.0579 266.0584 15.08848588 30564,6917.854,95.437,540.757,538.681,0.0
53716.0,STARLINK-4699,PAYLOAD,2023-03-20 17:07:50,15.08842122,0.000148,53.2167,84.4448,94.7724,265.3438,0.00012477,1.698e-05,0.0,0 STARLINK-4699,1 53716U 22107S   23079.71377389  .00001698  00000-0  12477-3 0  9998,2 53716  53.2167  84.4448 0001480  94.7724 265.3438 15.08842122 30610,6917.874,95.437,540.763,538.715,0.0
53716.0,STARLINK-4699,PAYLOAD,2023-03-21 07:26:18,15.08838744,0.0001532,53.2177,81.7684,98.9569,261.1597,9.5711e-06,-1.36e-06,0.0,0 STARLINK-4699,1 53716U 22107S   23080.30993642 -.00000136  00000-0  95711-5 0  9992,2 53716  53.2177  81.7684 0001532  98.9569 261.1597 15.08838744 30259,6917.884,95.438,540.809,538.689,0.0
53716.0,STARLINK-4699,PAYLOAD,2023-03-21 10:37:04,15.08841362,0.0001532,53.2178,81.1729,96.1803,263.9364,4.961e-05,5.02e-06,0.0,0 STARLINK-4699,1 53716U 22107S   23080.44241455  .00000502  00000-0  49610-4 0  9997,2 53716  53.2178  81.1729 0001532  96.1803 263.9364 15.08841362 30729,6917.876,95.437,540.801,538.681,0.0
53716.0,STARLINK-4699,PAYLOAD,2023-03-21 12:12:27,15.0884386,0.0001626,53.2181,80.8754,96.838,263.2798,7.4549e-05,8.99e-06,0.0,0 STARLINK-4699,1 53716U 22107S   23080.50865371  .00000899  00000-0  74549-4 0  9991,2 53716  53.2181  80.8754 0001626  96.8380 263.2798 15.08843860 30738,6917.869,95.437,540.858,538.609,0.0
53716.0,STARLINK-4699,PAYLOAD,2023-03-22 16:49:24,15.08842063,0.0001297,53.2173,75.521,92.4193,267.6947,7.1061e-05,8.43e-06,0.0,0 STARLINK-4699,1 53716U 22107S   23081.70097731  .00000843  00000-0  71061-4 0  9996,2 53716  53.2173  75.5210 0001297  92.4193 267.6947 15.08842063 30463,6917.874,95.437,540.636,538.842,0.0
53716.0,STARLINK-4699,PAYLOAD,2023-03-23 07:07:52,15.08848962,0.000128,53.2171,72.847,96.1934,263.9204,0.00019198,2.77e-05,0.0,0 STARLINK-4699,1 53716U 22107S   23082.29713399  .00002770  00000-0  19198-3 0  9999,2 53716  53.2171  72.8470 0001280  96.1934 263.9204 15.08848962 31005,6917.853,95.437,540.603,538.833,0.0
53716.0,STARLINK-4699,PAYLOAD,2023-03-23 16:40:11,15.08847931,0.0001212,53.2173,71.064,94.9671,265.1459,0.00016511,2.341e-05,0.0,0 STARLINK-4699,1 53716U 22107S   23082.69457537  .00002341  00000-0  16511-3 0  9992,2 53716  53.2173  71.0640 0001212  94.9671 265.1459 15.08847931 31063,6917.856,95.437,540.56,538.883,0.0
53716.0,STARLINK-4699,PAYLOAD,2023-03-24 05:23:15,15.08863226,0.0001196,53.2173,68.6834,98.7638,261.349,0.00038892,5.911e-05,0.0,0 STARLINK-4699,1 53716U 22107S   23083.22449054  .00005911  00000-0  38892-3 0  9999,2 53716  53.2173  68.6834 0001196  98.7638 261.3490 15.08863226 30692,6917.809,95.436,540.502,538.847,0.0
53716.0,STARLINK-4699,PAYLOAD,2023-03-24 10:09:25,15.08857506,0.0001312,53.2168,67.7913,96.1848,263.9293,0.00036946,5.6e-05,0.0,0 STARLINK-4699,1 53716U 22107S   23083.42321078  .00005600  00000-0  36946-3 0  9999,2 53716  53.2168  67.7913 0001312  96.1848 263.9293 15.08857506 31176,6917.827,95.436,540.599,538.784,0.0
